     2.10           G: GLONASS NAV DATA                     RINEX VERSION / TYPE
teqc  2015Jun23                         20220504 01:25:43UTCPGM / RUN BY / DATE
Linux 2.4.21-27.ELsmp|Opteron|gcc -static|Linux x86_64|=+   COMMENT
  2022     4    23   -1.396983861923D-09                    CORR TO SYSTEM TIME
                                                            END OF HEADER
 9 22  4 24  7 45  0.0 5.146116018295D-05 1.818989403546D-12 2.700000000000D+04
   -5.690454101562D+03 1.803483963013D-01-0.000000000000D+00 0.000000000000D+00
    2.357937597656D+04-1.054898262024D+00-9.313225746155D-10-2.000000000000D+00
   -7.757639648438D+03-3.338983535767D+00 1.862645149231D-09 0.000000000000D+00
21 22  4 24  7 45  0.0-2.958150580525D-04-2.728484105319D-12 2.700000000000D+04
    1.415943847656D+04-1.244838714600D+00 0.000000000000D+00 0.000000000000D+00
    1.726531591797D+04-1.165641784668D+00-0.000000000000D+00 4.000000000000D+00
    1.234629687500D+04 3.054710388184D+00-9.313225746155D-10 0.000000000000D+00
 7 22  4 24  7 45  0.0 3.423728048801D-05-0.000000000000D+00 2.817000000000D+04
    3.427829589844D+03-2.876705169678D+00 1.862645149231D-09 0.000000000000D+00
    1.041903076172D+04 1.306925773621D+00-9.313225746155D-10 5.000000000000D+00
   -2.298588671875D+04 1.589460372925D-01 1.862645149231D-09 0.000000000000D+00
10 22  4 24  8 15  0.0-8.177105337381D-05 0.000000000000D+00 2.880000000000D+04
    2.197716796875D+03 1.710615158081D-01-0.000000000000D+00 0.000000000000D+00
    2.537193310547D+04 2.690677642822D-01-0.000000000000D+00-7.000000000000D+00
    2.016405273438D+03-3.546345710754D+00 9.313225746155D-10 0.000000000000D+00
 6 22  4 24  8 15  0.0-4.481151700020D-05-1.818989403546D-12 2.880000000000D+04
   -1.601769775391D+04-1.155996322632D+00-9.313225746155D-10 0.000000000000D+00
    1.671220312500D+04 9.158897399902D-01-0.000000000000D+00-4.000000000000D+00
   -1.074021191406D+04 3.148172378540D+00 2.793967723846D-09 0.000000000000D+00
 5 22  4 24  8 15  0.0 9.170733392239D-05 9.094947017729D-13 2.880000000000D+04
   -2.223119580078D+04 1.155557632446D+00-2.793967723846D-09 0.000000000000D+00
    8.583224609375D+03-5.048465728760D-01 0.000000000000D+00 1.000000000000D+00
    9.144219726562D+03 3.287308692932D+00 9.313225746155D-10 0.000000000000D+00
 7 22  4 24  8 15  0.0 3.423728048801D-05 0.000000000000D+00 2.880000000000D+04
   -1.465969726562D+03-2.519245147705D+00 9.313225746155D-10 0.000000000000D+00
    1.308515722656D+04 1.624768257141D+00-9.313225746155D-10 5.000000000000D+00
   -2.181125048828D+04 1.137537002563D+00 2.793967723846D-09 0.000000000000D+00
 9 22  4 24  8 15  0.0 5.146395415068D-05 1.818989403546D-12 2.880000000000D+04
   -5.508803710938D+03-1.399135589600D-02-0.000000000000D+00 0.000000000000D+00
    2.095335351562D+04-1.839471817017D+00-9.313225746155D-10-2.000000000000D+00
   -1.338839160156D+04-2.876605033875D+00 2.793967723846D-09 0.000000000000D+00
21 22  4 24  8 15  0.0-2.958206459880D-04-2.728484105319D-12 2.880000000000D+04
    1.122642529297D+04-2.002689361572D+00-0.000000000000D+00 0.000000000000D+00
    1.502179541016D+04-1.281320571899D+00 0.000000000000D+00 4.000000000000D+00
    1.729679882812D+04 2.410128593445D+00-9.313225746155D-10 0.000000000000D+00
10 22  4 24  8 45  0.0-8.177105337381D-05 0.000000000000D+00 3.060000000000D+04
    2.429914550781D+03 4.693222045898D-02-0.000000000000D+00 0.000000000000D+00
    2.505596044922D+04-6.128883361816D-01-9.313225746155D-10-7.000000000000D+00
   -4.362519042969D+03-3.495532035828D+00 1.862645149231D-09 0.000000000000D+00
 6 22  4 24  8 45  0.0-4.481431096792D-05-1.818989403546D-12 3.060000000000D+04
   -1.740557177734D+04-3.951311111450D-01-1.862645149231D-09 0.000000000000D+00
    1.805236328125D+04 5.322551727295D-01-0.000000000000D+00-4.000000000000D+00
   -4.731901367188D+03 3.484430313110D+00 1.862645149231D-09 0.000000000000D+00
 5 22  4 24  8 45  0.0 9.170919656754D-05 9.094947017729D-13 3.060000000000D+04
   -1.967109521484D+04 1.646504402161D+00-2.793967723846D-09 0.000000000000D+00
    7.110449707031D+03-1.144842147827D+00 9.313225746155D-10 1.000000000000D+00
    1.463226074219D+04 2.771026611328D+00 0.000000000000D+00 0.000000000000D+00
 7 22  4 24  8 45  0.0 3.423728048801D-05 0.000000000000D+00 3.060000000000D+04
   -5.515945800781D+03-1.953624725342D+00-0.000000000000D+00 0.000000000000D+00
    1.613537402344D+04 1.722455978394D+00-9.313225746155D-10 5.000000000000D+00
   -1.894446142578D+04 2.026861190796D+00 2.793967723846D-09 0.000000000000D+00
 9 22  4 24  8 45  0.0 5.146674811840D-05 1.818989403546D-12 3.060000000000D+04
   -5.850495605469D+03-3.899517059326D-01-0.000000000000D+00 0.000000000000D+00
    1.707060839844D+04-2.436144828796D+00-9.313225746155D-10-2.000000000000D+00
   -1.797916894531D+04-2.191067695618D+00 2.793967723846D-09 0.000000000000D+00
21 22  4 24  8 45  0.0-2.958253026009D-04-2.728484105319D-12 3.060000000000D+04
    7.025165039062D+03-2.635411262512D+00-9.313225746155D-10 0.000000000000D+00
    1.281009716797D+04-1.135951042175D+00 0.000000000000D+00 4.000000000000D+00
    2.091060888672D+04 1.579116821289D+00-9.313225746155D-10 0.000000000000D+00
10 22  4 24  9 15  0.0-8.177012205124D-05 0.000000000000D+00 3.240000000000D+04
    2.232280273438D+03-2.997789382935D-01-0.000000000000D+00 0.000000000000D+00
    2.322539062500D+04-1.395643234253D+00-9.313225746155D-10-7.000000000000D+00
   -1.040567382812D+04-3.175679206848D+00 1.862645149231D-09 0.000000000000D+00
 6 22  4 24  9 15  0.0-4.481803625822D-05-1.818989403546D-12 3.240000000000D+04
   -1.750435888672D+04 2.594766616821D-01-2.793967723846D-09 0.000000000000D+00
    1.849604345703D+04-7.050991058350D-02 0.000000000000D+00-4.000000000000D+00
    1.641860839844D+03 3.551592826843D+00 1.862645149231D-09 0.000000000000D+00
 7 22  4 24  9 15  0.0 3.423728048801D-05 0.000000000000D+00 3.240000000000D+04
   -8.433396484375D+03-1.279081344604D+00-9.313225746155D-10 0.000000000000D+00
    1.912458154297D+04 1.552618980408D+00-0.000000000000D+00 5.000000000000D+00
   -1.460966210938D+04 2.758091926575D+00 2.793967723846D-09 0.000000000000D+00
 9 22  4 24  9 15  0.0 5.146954208612D-05 1.818989403546D-12 3.240000000000D+04
   -6.972731445312D+03-8.653993606567D-01-0.000000000000D+00 0.000000000000D+00
    1.234092529297D+04-2.771376609802D+00-9.313225746155D-10-2.000000000000D+00
   -2.117430712891D+04-1.336091041565D+00 2.793967723846D-09 0.000000000000D+00
 8 22  4 24  9 15  0.0-6.474833935499D-05-0.000000000000D+00 3.375000000000D+04
    5.299205078125D+03-2.124611854553D+00 9.313225746155D-10 0.000000000000D+00
    1.012128662109D+04 2.300726890564D+00-1.862645149231D-09 6.000000000000D+00
   -2.274595117188D+04 5.251169204712D-01 1.862645149231D-09 0.000000000000D+00
10 22  4 24  9 45  0.0-8.177012205124D-05 0.000000000000D+00 3.420000000000D+04
    1.252496093750D+03-8.091125488281D-01-0.000000000000D+00 0.000000000000D+00
    2.015044042969D+04-1.981486320496D+00-9.313225746155D-10-7.000000000000D+00
   -1.564785742188D+04-2.611274719238D+00 2.793967723846D-09 0.000000000000D+00
 6 22  4 24  9 45  0.0-4.482176154852D-05-1.818989403546D-12 3.420000000000D+04
   -1.658837939453D+04 7.204151153564D-01-2.793967723846D-09 0.000000000000D+00
    1.771212304688D+04-8.163595199585D-01 9.313225746155D-10-4.000000000000D+00
    7.888808105469D+03 3.344429016113D+00 9.313225746155D-10 0.000000000000D+00
 7 22  4 24  9 45  0.0 3.423821181059D-05 0.000000000000D+00 3.420000000000D+04
   -1.012283447266D+04-6.080083847046D-01-1.862645149231D-09 0.000000000000D+00
    2.156145849609D+04 1.112081527710D+00 0.000000000000D+00 5.000000000000D+00
   -9.144249023438D+03 3.275027275085D+00 1.862645149231D-09 0.000000000000D+00
 8 22  4 24  9 45  0.0-6.475020200014D-05-0.000000000000D+00 3.420000000000D+04
    1.905278808594D+03-1.623660087585D+00 0.000000000000D+00 0.000000000000D+00
    1.437611035156D+04 2.380850791931D+00-9.313225746155D-10 6.000000000000D+00
   -2.092850488281D+04 1.480940818787D+00 2.793967723846D-09 0.000000000000D+00
 9 22  4 24  9 45  0.0 5.147233605385D-05 1.818989403546D-12 3.420000000000D+04
   -8.964372558594D+03-1.338165283203D+00-0.000000000000D+00 0.000000000000D+00
    7.271223632812D+03-2.812201499939D+00-9.313225746155D-10-2.000000000000D+00
   -2.272736376953D+04-3.784847259521D-01 2.793967723846D-09 0.000000000000D+00
10 22  4 24 10 15  0.0-8.177012205124D-05 0.000000000000D+00 3.600000000000D+04
   -7.235776367188D+02-1.389647483826D+00-0.000000000000D+00 0.000000000000D+00
    1.625063818359D+04-2.304425239563D+00-9.313225746155D-10-7.000000000000D+00
   -1.968508251953D+04-1.845423698425D+00 2.793967723846D-09 0.000000000000D+00
 6 22  4 24 10 15  0.0-4.482548683882D-05-1.818989403546D-12 3.600000000000D+04
   -1.505918457031D+04 9.356336593628D-01-1.862645149231D-09 0.000000000000D+00
    1.553297070312D+04-1.602150917053D+00 1.862645149231D-09-4.000000000000D+00
    1.352636132812D+04 2.878866195679D+00 0.000000000000D+00 0.000000000000D+00
 7 22  4 24 10 15  0.0 3.423914313316D-05 0.000000000000D+00 3.600000000000D+04
   -1.068887646484D+04-4.723072052002D-02-1.862645149231D-09 0.000000000000D+00
    2.299008837891D+04 4.428853988647D-01 9.313225746155D-10 5.000000000000D+00
   -2.972135742188D+03 3.538341522217D+00 1.862645149231D-09 0.000000000000D+00
 8 22  4 24 10 15  0.0-6.475113332272D-05-0.000000000000D+00 3.600000000000D+04
   -4.963793945312D+02-1.040376663208D+00-9.313225746155D-10 0.000000000000D+00
    1.851875781250D+04 2.173213958740D+00-0.000000000000D+00 6.000000000000D+00
   -1.748438330078D+04 2.320718765259D+00 2.793967723846D-09 0.000000000000D+00
12 22  4 24 10 15  0.0 1.807790249586D-05 0.000000000000D+00 3.660000000000D+04
    1.651251708984D+04 1.069074630737D+00-0.000000000000D+00 0.000000000000D+00
    1.435887548828D+04 1.447872161865D+00 0.000000000000D+00-1.000000000000D+00
    1.314643554688D+04-2.927286148071D+00-0.000000000000D+00 0.000000000000D+00
